ONEWEB-0066             
1 45424U 20020A   23292.35434928 -.00000412  00000+0 -11987-2 0  9995
2 45424  87.9000 214.1288 0002054  61.3051 298.8284 13.11417507175305
ONEWEB-0067             
1 45425U 20020B   23292.30158319  .00000317  00000+0  85972-3 0  9996
2 45425  87.8994 214.1129 0002145  76.3555 283.7811 13.11419365175355
ONEWEB-0080             
1 45426U 20020C   23292.32673275  .00000378  00000+0  10314-2 0  9996
2 45426  87.8999 214.1364 0001927  61.2923 298.8398 13.11420453175325
ONEWEB-0090             
1 45427U 20020D   23292.34461774 -.00000391  00000+0 -11390-2 0  9990
2 45427  87.8993 214.1123 0001837  68.0248 292.1075 13.11419496175298
ONEWEB-0061             
1 45428U 20020E   23292.30077251  .00000256  00000+0  68694-3 0  9998
2 45428  87.8999 214.1224 0001998  74.0580 286.0768 13.11419045175247
ONEWEB-0081             
1 45429U 20020F   23292.28127823 -.00000402  00000+0 -11699-2 0  9994
2 45429  87.8997 214.1450 0002098  71.0374 289.0981 13.11416860175351
ONEWEB-0069             
1 45430U 20020G   23292.34785871 -.00000379  00000+0 -11058-2 0  9998
2 45430  87.8990 214.1235 0001857  71.8121 288.3209 13.11412327175299
ONEWEB-0031             
1 45431U 20020H   23292.31865601  .00000589  00000+0  16258-2 0  9994
2 45431  87.8997 214.1237 0001720  82.1647 277.9676 13.11417819175277
